[{"OBJECT_NAME":"STARLINK-6216","OBJECT_ID":"2023-083T","EPOCH":"2026-03-09T10:30:50.012640","MEAN_MOTION":15.02535415,"ECCENTRICITY":0.00013252,"INCLINATION":43.0042,"RA_OF_ASC_NODE":83.0492,"ARG_OF_PERICENTER":262.8072,"MEAN_ANOMALY":97.2619,"EPHEMERIS_TYPE":0,"CLASSIFICATION_TYPE":"U","NORAD_CAT_ID":56893,"ELEMENT_SET_NO":999,"REV_AT_EPOCH":15175,"BSTAR":-1.9915865e-5,"MEAN_MOTION_DOT":-4.73e-6,"MEAN_MOTION_DDOT":0},{"OBJECT_NAME":"OBJECT U","OBJECT_ID":"2017-042U","EPOCH":"2026-03-09T22:07:56.164512","MEAN_MOTION":15.00675308,"ECCENTRICITY":0.00148173,"INCLINATION":97.4238,"RA_OF_ASC_NODE":229.7372,"ARG_OF_PERICENTER":56.7191,"MEAN_ANOMALY":303.5451,"EPHEMERIS_TYPE":0,"CLASSIFICATION_TYPE":"U","NORAD_CAT_ID":42843,"ELEMENT_SET_NO":999,"REV_AT_EPOCH":47173,"BSTAR":0.00030670501,"MEAN_MOTION_DOT":3.834e-5,"MEAN_MOTION_DDOT":0}]
